[{"OBJECT_NAME":"STARLINK-32523","OBJECT_ID":"2024-225C","EPOCH":"2026-03-09T22:00:01.999584","MEAN_MOTION":14.98354102,"ECCENTRICITY":0.00037666,"INCLINATION":70.0005,"RA_OF_ASC_NODE":163.9633,"ARG_OF_PERICENTER":272.8852,"MEAN_ANOMALY":208.8511,"EPHEMERIS_TYPE":0,"CLASSIFICATION_TYPE":"U","NORAD_CAT_ID":62165,"ELEMENT_SET_NO":999,"REV_AT_EPOCH":561,"BSTAR":-0.003783564,"MEAN_MOTION_DOT":-0.0004498,"MEAN_MOTION_DDOT":0},{"OBJECT_NAME":"FENGYUN 1C DEB","OBJECT_ID":"1999-025BYC","EPOCH":"2026-03-06T06:01:48.323136","MEAN_MOTION":14.23309758,"ECCENTRICITY":0.03388034,"INCLINATION":99.2996,"RA_OF_ASC_NODE":228.0472,"ARG_OF_PERICENTER":87.1809,"MEAN_ANOMALY":276.8086,"EPHEMERIS_TYPE":0,"CLASSIFICATION_TYPE":"U","NORAD_CAT_ID":31537,"ELEMENT_SET_NO":999,"REV_AT_EPOCH":94468,"BSTAR":0.0028272001,"MEAN_MOTION_DOT":0.00011573,"MEAN_MOTION_DDOT":0}]
